IRIDIUM 166             
1 43570U 18061B   23238.76757657  .00000172  00000+0  54487-4 0  9994
2 43570  86.3978 125.3287 0002304  82.4687 277.6771 14.34214810266429
IRIDIUM 158             
1 43571U 18061C   23238.73586395  .00000269  00000+0  89023-4 0  9992
2 43571  86.3976 125.3506 0002129  75.9962 284.1470 14.34217754266384
IRIDIUM 165             
1 43572U 18061D   23238.76123427  .00000295  00000+0  98280-4 0  9993
2 43572  86.3978 125.3669 0002105  73.7253 286.4174 14.34216758266413
IRIDIUM 155             
1 43573U 18061E   23238.79294604  .00000360  00000+0  12160-3 0  9998
2 43573  86.3974 125.2728 0002397  87.3291 272.8179 14.34217442266382
IRIDIUM 154             
1 43574U 18061F   23238.70414978  .00000121  00000+0  35995-4 0  9995
2 43574  86.3979 125.3939 0001912  86.3115 273.8300 14.34216117266429
IRIDIUM 163             
1 43575U 18061G   23238.75489095  .00000319  00000+0  10675-3 0  9999
2 43575  86.3976 125.3200 0002069  84.1712 275.9720 14.34217527266404
IRIDIUM 156             
1 43576U 18061H   23238.72952156  .00000269  00000+0  88920-4 0  9993
2 43576  86.3976 125.3364 0002408  81.7446 278.4023 14.34217501266394
IRIDIUM 164             
1 43577U 18061J   23238.78026002  .00000267  00000+0  88134-4 0  9997
2 43577  86.3977 125.3397 0002127  77.7796 282.3638 14.34219107266449
